[{"OBJECT_NAME":"HUANJING 1A (HJ-1A)","OBJECT_ID":"2008-041A","EPOCH":"2026-03-09T23:20:18.926592","MEAN_MOTION":14.83722198,"ECCENTRICITY":0.00205789,"INCLINATION":97.6638,"RA_OF_ASC_NODE":58.6973,"ARG_OF_PERICENTER":102.9318,"MEAN_ANOMALY":257.4197,"EPHEMERIS_TYPE":0,"CLASSIFICATION_TYPE":"U","NORAD_CAT_ID":33320,"ELEMENT_SET_NO":999,"REV_AT_EPOCH":94369,"BSTAR":0.0003142853,"MEAN_MOTION_DOT":2.557e-5,"MEAN_MOTION_DDOT":0},{"OBJECT_NAME":"SL-14 R\/B","OBJECT_ID":"1987-062B","EPOCH":"2026-03-09T17:34:43.294656","MEAN_MOTION":14.85636456,"ECCENTRICITY":0.00206459,"INCLINATION":82.5145,"RA_OF_ASC_NODE":173.2193,"ARG_OF_PERICENTER":55.7426,"MEAN_ANOMALY":58.5002,"EPHEMERIS_TYPE":0,"CLASSIFICATION_TYPE":"U","NORAD_CAT_ID":18215,"ELEMENT_SET_NO":999,"REV_AT_EPOCH":6751,"BSTAR":7.5075343e-5,"MEAN_MOTION_DOT":6.77e-6,"MEAN_MOTION_DDOT":0}]
